<?xml version="1.0" encoding="UTF-8"?>
<ndm xmlns:xsi="http://www.w3.org/2001/XMLSchema-instance" xsi:noNamespaceSchemaLocation="https://sanaregistry.org/r/ndmxml_unqualified/ndmxml-2.0.0-master-2.0.xsd">
<omm id="CCSDS_OMM_VERS" version="2.0">
<header><CREATION_DATE/><ORIGINATOR/></header><body><segment><metadata><OBJECT_NAME>ORBCOMM FM33</OBJECT_NAME><OBJECT_ID>1999-065D</OBJECT_ID><CENTER_NAME>EARTH</CENTER_NAME><REF_FRAME>TEME</REF_FRAME><TIME_SYSTEM>UTC</TIME_SYSTEM><MEAN_ELEMENT_THEORY>SGP4</MEAN_ELEMENT_THEORY></metadata><data><meanElements><EPOCH>2024-08-25T12:43:36.930720</EPOCH><MEAN_MOTION>14.38200822</MEAN_MOTION><ECCENTRICITY>.0007435</ECCENTRICITY><INCLINATION>45.0296</INCLINATION><RA_OF_ASC_NODE>322.8959</RA_OF_ASC_NODE><ARG_OF_PERICENTER>359.4364</ARG_OF_PERICENTER><MEAN_ANOMALY>0.6475</MEAN_ANOMALY></meanElements><tleParameters><EPHEMERIS_TYPE>0</EPHEMERIS_TYPE><CLASSIFICATION_TYPE>U</CLASSIFICATION_TYPE><NORAD_CAT_ID>25983</NORAD_CAT_ID><ELEMENT_SET_NO>999</ELEMENT_SET_NO><REV_AT_EPOCH>29354</REV_AT_EPOCH><BSTAR>.84596E-3</BSTAR><MEAN_MOTION_DOT>.2452E-4</MEAN_MOTION_DOT><MEAN_MOTION_DDOT>0</MEAN_MOTION_DDOT></tleParameters></data></segment></body></omm>
<omm id="CCSDS_OMM_VERS" version="2.0">
<header><CREATION_DATE/><ORIGINATOR/></header><body><segment><metadata><OBJECT_NAME>ORBCOMM FM36</OBJECT_NAME><OBJECT_ID>1999-065E</OBJECT_ID><CENTER_NAME>EARTH</CENTER_NAME><REF_FRAME>TEME</REF_FRAME><TIME_SYSTEM>UTC</TIME_SYSTEM><MEAN_ELEMENT_THEORY>SGP4</MEAN_ELEMENT_THEORY></metadata><data><meanElements><EPOCH>2024-08-24T21:22:52.625568</EPOCH><MEAN_MOTION>14.36143647</MEAN_MOTION><ECCENTRICITY>.000391</ECCENTRICITY><INCLINATION>45.0401</INCLINATION><RA_OF_ASC_NODE>53.2253</RA_OF_ASC_NODE><ARG_OF_PERICENTER>233.0627</ARG_OF_PERICENTER><MEAN_ANOMALY>126.9863</MEAN_ANOMALY></meanElements><tleParameters><EPHEMERIS_TYPE>0</EPHEMERIS_TYPE><CLASSIFICATION_TYPE>U</CLASSIFICATION_TYPE><NORAD_CAT_ID>25984</NORAD_CAT_ID><ELEMENT_SET_NO>999</ELEMENT_SET_NO><REV_AT_EPOCH>29179</REV_AT_EPOCH><BSTAR>.11679E-2</BSTAR><MEAN_MOTION_DOT>.3294E-4</MEAN_MOTION_DOT><MEAN_MOTION_DDOT>0</MEAN_MOTION_DDOT></tleParameters></data></segment></body></omm>
<omm id="CCSDS_OMM_VERS" version="2.0">
<header><CREATION_DATE/><ORIGINATOR/></header><body><segment><metadata><OBJECT_NAME>ORBCOMM FM35</OBJECT_NAME><OBJECT_ID>1999-065F</OBJECT_ID><CENTER_NAME>EARTH</CENTER_NAME><REF_FRAME>TEME</REF_FRAME><TIME_SYSTEM>UTC</TIME_SYSTEM><MEAN_ELEMENT_THEORY>SGP4</MEAN_ELEMENT_THEORY></metadata><data><meanElements><EPOCH>2024-08-24T21:35:08.836512</EPOCH><MEAN_MOTION>14.35566353</MEAN_MOTION><ECCENTRICITY>.0002377</ECCENTRICITY><INCLINATION>45.0401</INCLINATION><RA_OF_ASC_NODE>56.2320</RA_OF_ASC_NODE><ARG_OF_PERICENTER>352.4335</ARG_OF_PERICENTER><MEAN_ANOMALY>7.6477</MEAN_ANOMALY></meanElements><tleParameters><EPHEMERIS_TYPE>0</EPHEMERIS_TYPE><CLASSIFICATION_TYPE>U</CLASSIFICATION_TYPE><NORAD_CAT_ID>25985</NORAD_CAT_ID><ELEMENT_SET_NO>999</ELEMENT_SET_NO><REV_AT_EPOCH>29218</REV_AT_EPOCH><BSTAR>.83574E-3</BSTAR><MEAN_MOTION_DOT>.2288E-4</MEAN_MOTION_DOT><MEAN_MOTION_DDOT>0</MEAN_MOTION_DDOT></tleParameters></data></segment></body></omm>
<omm id="CCSDS_OMM_VERS" version="2.0">
<header><CREATION_DATE/><ORIGINATOR/></header><body><segment><metadata><OBJECT_NAME>ORBCOMM FM34</OBJECT_NAME><OBJECT_ID>1999-065G</OBJECT_ID><CENTER_NAME>EARTH</CENTER_NAME><REF_FRAME>TEME</REF_FRAME><TIME_SYSTEM>UTC</TIME_SYSTEM><MEAN_ELEMENT_THEORY>SGP4</MEAN_ELEMENT_THEORY></metadata><data><meanElements><EPOCH>2024-08-24T20:55:06.678912</EPOCH><MEAN_MOTION>14.35556951</MEAN_MOTION><ECCENTRICITY>.0003213</ECCENTRICITY><INCLINATION>45.0396</INCLINATION><RA_OF_ASC_NODE>56.9135</RA_OF_ASC_NODE><ARG_OF_PERICENTER>283.3738</ARG_OF_PERICENTER><MEAN_ANOMALY>76.6751</MEAN_ANOMALY></meanElements><tleParameters><EPHEMERIS_TYPE>0</EPHEMERIS_TYPE><CLASSIFICATION_TYPE>U</CLASSIFICATION_TYPE><NORAD_CAT_ID>25986</NORAD_CAT_ID><ELEMENT_SET_NO>999</ELEMENT_SET_NO><REV_AT_EPOCH>29229</REV_AT_EPOCH><BSTAR>.83606E-3</BSTAR><MEAN_MOTION_DOT>.2289E-4</MEAN_MOTION_DOT><MEAN_MOTION_DDOT>0</MEAN_MOTION_DDOT></tleParameters></data></segment></body></omm>
<omm id="CCSDS_OMM_VERS" version="2.0">
<header><CREATION_DATE/><ORIGINATOR/></header><body><segment><metadata><OBJECT_NAME>ORBCOMM FM38</OBJECT_NAME><OBJECT_ID>2008-031A</OBJECT_ID><CENTER_NAME>EARTH</CENTER_NAME><REF_FRAME>TEME</REF_FRAME><TIME_SYSTEM>UTC</TIME_SYSTEM><MEAN_ELEMENT_THEORY>SGP4</MEAN_ELEMENT_THEORY></metadata><data><meanElements><EPOCH>2024-08-25T12:32:51.919296</EPOCH><MEAN_MOTION>14.78385667</MEAN_MOTION><ECCENTRICITY>.0005401</ECCENTRICITY><INCLINATION>48.4399</INCLINATION><RA_OF_ASC_NODE>281.5355</RA_OF_ASC_NODE><ARG_OF_PERICENTER>221.7471</ARG_OF_PERICENTER><MEAN_ANOMALY>138.3031</MEAN_ANOMALY></meanElements><tleParameters><EPHEMERIS_TYPE>0</EPHEMERIS_TYPE><CLASSIFICATION_TYPE>U</CLASSIFICATION_TYPE><NORAD_CAT_ID>33060</NORAD_CAT_ID><ELEMENT_SET_NO>999</ELEMENT_SET_NO><REV_AT_EPOCH>87094</REV_AT_EPOCH><BSTAR>.58816E-3</BSTAR><MEAN_MOTION_DOT>.4122E-4</MEAN_MOTION_DOT><MEAN_MOTION_DDOT>0</MEAN_MOTION_DDOT></tleParameters></data></segment></body></omm>
<omm id="CCSDS_OMM_VERS" version="2.0">
<header><CREATION_DATE/><ORIGINATOR/></header><body><segment><metadata><OBJECT_NAME>ORBCOMM FM41</OBJECT_NAME><OBJECT_ID>2008-031B</OBJECT_ID><CENTER_NAME>EARTH</CENTER_NAME><REF_FRAME>TEME</REF_FRAME><TIME_SYSTEM>UTC</TIME_SYSTEM><MEAN_ELEMENT_THEORY>SGP4</MEAN_ELEMENT_THEORY></metadata><data><meanElements><EPOCH>2024-08-24T21:02:45.805920</EPOCH><MEAN_MOTION>14.78099799</MEAN_MOTION><ECCENTRICITY>.0004383</ECCENTRICITY><INCLINATION>48.4438</INCLINATION><RA_OF_ASC_NODE>291.4748</RA_OF_ASC_NODE><ARG_OF_PERICENTER>206.5199</ARG_OF_PERICENTER><MEAN_ANOMALY>323.9323</MEAN_ANOMALY></meanElements><tleParameters><EPHEMERIS_TYPE>0</EPHEMERIS_TYPE><CLASSIFICATION_TYPE>U</CLASSIFICATION_TYPE><NORAD_CAT_ID>33061</NORAD_CAT_ID><ELEMENT_SET_NO>999</ELEMENT_SET_NO><REV_AT_EPOCH>87035</REV_AT_EPOCH><BSTAR>.57933E-3</BSTAR><MEAN_MOTION_DOT>.4028E-4</MEAN_MOTION_DOT><MEAN_MOTION_DDOT>0</MEAN_MOTION_DDOT></tleParameters></data></segment></body></omm>
<omm id="CCSDS_OMM_VERS" version="2.0">
<header><CREATION_DATE/><ORIGINATOR/></header><body><segment><metadata><OBJECT_NAME>ORBCOMM FM29</OBJECT_NAME><OBJECT_ID>2008-031C</OBJECT_ID><CENTER_NAME>EARTH</CENTER_NAME><REF_FRAME>TEME</REF_FRAME><TIME_SYSTEM>UTC</TIME_SYSTEM><MEAN_ELEMENT_THEORY>SGP4</MEAN_ELEMENT_THEORY></metadata><data><meanElements><EPOCH>2024-08-25T04:20:07.675296</EPOCH><MEAN_MOTION>14.78060663</MEAN_MOTION><ECCENTRICITY>.00062</ECCENTRICITY><INCLINATION>48.4392</INCLINATION><RA_OF_ASC_NODE>298.0657</RA_OF_ASC_NODE><ARG_OF_PERICENTER>203.0891</ARG_OF_PERICENTER><MEAN_ANOMALY>186.0835</MEAN_ANOMALY></meanElements><tleParameters><EPHEMERIS_TYPE>0</EPHEMERIS_TYPE><CLASSIFICATION_TYPE>U</CLASSIFICATION_TYPE><NORAD_CAT_ID>33062</NORAD_CAT_ID><ELEMENT_SET_NO>999</ELEMENT_SET_NO><REV_AT_EPOCH>87070</REV_AT_EPOCH><BSTAR>.58715E-3</BSTAR><MEAN_MOTION_DOT>.4082E-4</MEAN_MOTION_DOT><MEAN_MOTION_DDOT>0</MEAN_MOTION_DDOT></tleParameters></data></segment></body></omm>
<omm id="CCSDS_OMM_VERS" version="2.0">
<header><CREATION_DATE/><ORIGINATOR/></header><body><segment><metadata><OBJECT_NAME>ORBCOMM FM39</OBJECT_NAME><OBJECT_ID>2008-031D</OBJECT_ID><CENTER_NAME>EARTH</CENTER_NAME><REF_FRAME>TEME</REF_FRAME><TIME_SYSTEM>UTC</TIME_SYSTEM><MEAN_ELEMENT_THEORY>SGP4</MEAN_ELEMENT_THEORY></metadata><data><meanElements><EPOCH>2024-08-25T11:41:12.662304</EPOCH><MEAN_MOTION>14.76965497</MEAN_MOTION><ECCENTRICITY>.0006883</ECCENTRICITY><INCLINATION>48.4412</INCLINATION><RA_OF_ASC_NODE>317.9781</RA_OF_ASC_NODE><ARG_OF_PERICENTER>176.9088</ARG_OF_PERICENTER><MEAN_ANOMALY>183.1869</MEAN_ANOMALY></meanElements><tleParameters><EPHEMERIS_TYPE>0</EPHEMERIS_TYPE><CLASSIFICATION_TYPE>U</CLASSIFICATION_TYPE><NORAD_CAT_ID>33063</NORAD_CAT_ID><ELEMENT_SET_NO>999</ELEMENT_SET_NO><REV_AT_EPOCH>87046</REV_AT_EPOCH><BSTAR>.58688E-3</BSTAR><MEAN_MOTION_DOT>.3973E-4</MEAN_MOTION_DOT><MEAN_MOTION_DDOT>0</MEAN_MOTION_DDOT></tleParameters></data></segment></body></omm>

</ndm>
