ORBCOMM FM33            
1 25983U 99065D   24238.53028855  .00002452  00000+0  84596-3 0  9998
2 25983  45.0296 322.8959 0007435 359.4364   0.6475 14.38200822293541
ORBCOMM FM36            
1 25984U 99065E   24237.89088687  .00003294  00000+0  11679-2 0  9992
2 25984  45.0401  53.2253 0003910 233.0627 126.9863 14.36143647291792
ORBCOMM FM35            
1 25985U 99065F   24237.89940783  .00002288  00000+0  83574-3 0  9993
2 25985  45.0401  56.2320 0002377 352.4335   7.6477 14.35566353292181
ORBCOMM FM34            
1 25986U 99065G   24237.87160508  .00002289  00000+0  83606-3 0  9998
2 25986  45.0396  56.9135 0003213 283.3738  76.6751 14.35556951292291
ORBCOMM FM38            
1 33060U 08031A   24238.52282314  .00004122  00000+0  58816-3 0  9999
2 33060  48.4399 281.5355 0005401 221.7471 138.3031 14.78385667870946
ORBCOMM FM41            
1 33061U 08031B   24237.87691905  .00004028  00000+0  57933-3 0  9991
2 33061  48.4438 291.4748 0004383 206.5199 323.9323 14.78099799870352
ORBCOMM FM29            
1 33062U 08031C   24238.18064439  .00004082  00000+0  58715-3 0  9992
2 33062  48.4392 298.0657 0006200 203.0891 186.0835 14.78060663870708
ORBCOMM FM39            
1 33063U 08031D   24238.48695211  .00003973  00000+0  58688-3 0  9991
2 33063  48.4412 317.9781 0006883 176.9088 183.1869 14.76965497870469
